{
    "links": {
        "self": "http://www.neowsapp.com/rest/v1/neo/3483652?api_key=iIulBulltgU6a56xZRHN4H3l9WmuAYTsLGpBGhQ2"
    },
    "id": "3483652",
    "neo_reference_id": "3483652",
    "name": "(2009 XL8)",
    "designation": "2009 XL8",
    "nasa_jpl_url": "http://ssd.jpl.nasa.gov/sbdb.cgi?sstr=3483652",
    "absolute_magnitude_h": 22.5,
    "estimated_diameter": {
        "kilometers": {
            "estimated_diameter_min": 0.0840533402,
            "estimated_diameter_max": 0.1879489824
        },
        "meters": {
            "estimated_diameter_min": 84.0533402073,
            "estimated_diameter_max": 187.9489824394
        },
        "miles": {
            "estimated_diameter_min": 0.0522283081,
            "estimated_diameter_max": 0.1167860472
        },
        "feet": {
            "estimated_diameter_min": 275.7655606856,
            "estimated_diameter_max": 616.6305395464
        }
    },
    "is_potentially_hazardous_asteroid": false,
    "close_approach_data": [
        {
            "close_approach_date": "1944-12-11",
            "close_approach_date_full": "1944-Dec-11 18:37",
            "epoch_date_close_approach": -790665780000,
            "relative_velocity": {
                "kilometers_per_second": "10.5958539634",
                "kilometers_per_hour": "38145.0742681104",
                "miles_per_hour": "23701.8657306489"
            },
            "miss_distance": {
                "astronomical": "0.4897421483",
                "lunar": "190.5096956887",
                "kilometers": "73264382.234904121",
                "miles": "45524376.1273980298"
            },
            "orbiting_body": "Earth"
        },
        {
            "close_approach_date": "2009-12-29",
            "close_approach_date_full": "2009-Dec-29 01:46",
            "epoch_date_close_approach": 1262051160000,
            "relative_velocity": {
                "kilometers_per_second": "16.6205345449",
                "kilometers_per_hour": "59833.9243616962",
                "miles_per_hour": "37178.4737235217"
            },
            "miss_distance": {
                "astronomical": "0.0384493779",
                "lunar": "14.9568080031",
                "kilometers": "5751945.036665073",
                "miles": "3574092.9128930874"
            },
            "orbiting_body": "Earth"
        },
        {
            "close_approach_date": "2137-01-03",
            "close_approach_date_full": "2137-Jan-03 06:27",
            "epoch_date_close_approach": 5270250420000,
            "relative_velocity": {
                "kilometers_per_second": "14.0980260008",
                "kilometers_per_hour": "50752.8936027324",
                "miles_per_hour": "31535.8743610978"
            },
            "miss_distance": {
                "astronomical": "0.0871977848",
                "lunar": "33.9199382872",
                "kilometers": "13044602.874798376",
                "miles": "8105540.3674985488"
            },
            "orbiting_body": "Earth"
        }
    ],
    "orbital_data": {
        "orbit_id": "7",
        "orbit_determination_date": "2017-04-06 08:58:45",
        "first_observation_date": "2009-12-15",
        "last_observation_date": "2009-12-20",
        "data_arc_in_days": 5,
        "observations_used": 35,
        "orbit_uncertainty": "9",
        "minimum_orbit_intersection": ".0352639",
        "jupiter_tisserand_invariant": "5.027",
        "epoch_osculation": "2455182.5",
        "eccentricity": ".4807391345105938",
        "semi_major_axis": "1.24028009151701",
        "inclination": "13.71599548131454",
        "ascending_node_longitude": "270.3272285789071",
        "orbital_period": "504.5196500498517",
        "perihelion_distance": ".6440289137704028",
        "perihelion_argument": "283.1682050877317",
        "aphelion_distance": "1.836531269263618",
        "perihelion_time": "2455251.579609177083",
        "mean_anomaly": "310.7082443641341",
        "mean_motion": ".7135500073474408",
        "equinox": "J2000",
        "orbit_class": {
            "orbit_class_type": "APO",
            "orbit_class_description": "Near-Earth asteroid orbits which cross the Earth’s orbit similar to that of 1862 Apollo",
            "orbit_class_range": "a (semi-major axis) > 1.0 AU; q (perihelion) < 1.017 AU"
        }
    },
    "is_sentry_object": false
}